BLUEBON                 
1 62688U 25009CH  26068.70316231  .00010452  00000+0  37313-3 0  9992
2 62688  97.4017 152.2033 0001193  43.3900 316.7434 15.29047253 63767
STARLINK-34161          
1 64017U 25101Z   26068.14569337  .00029321  00000+0  10702-2 0  9995
2 64017  43.0052   0.8898 0001807 273.3372  86.7273 15.27599371 46978
